{"type": "FeatureCollection", "features": [ {"type": "Feature", "properties": {"norad_id": 44476, "name": "INTELSAT 39 (IS-39)", "group": "intelsat", "lat": 0.04212587063210869, "lon": 69.39457629272613, "alt_km": 35786.05299746801, "timestamp": "2025-12-05T19:30:25.235302+00:00", "meta": {"OBJECT_NAME": "INTELSAT 39 (IS-39)", "OBJECT_ID": "2019-049B", "EPOCH": "2025-12-04T23:54:38.661120", "MEAN_MOTION": 1.00270855, "ECCENTRICITY": 4.749e-05, "INCLINATION": 0.0171, "RA_OF_ASC_NODE": 328.649, "ARG_OF_PERICENTER": 184.1586, "MEAN_ANOMALY": 341.861, "EPHEMERIS_TYPE": 0, "CLASSIFICATION_TYPE": "U", "NORAD_CAT_ID": 44476, "ELEMENT_SET_NO": 999, "REV_AT_EPOCH": 2318, "BSTAR": 0, "MEAN_MOTION_DOT": 4.6e-07, "MEAN_MOTION_DDOT": 0}, "tle": {"line1": "1 44476U 19049B   25338.99628080  .00000046  00000+0  00000+0 0  9999", "line2": "2 44476   0.0171 328.6490 0000474 184.1586 341.8610  1.00270855 23181"}}, "geometry": {"type": "Point", "coordinates": [69.39457629272613, 0.04212587063210869]}}, {"type": "Feature", "properties": {"norad_id": 46114, "name": "GALAXY 30 (G-30)", "group": "intelsat", "lat": -0.04207811481181328, "lon": -117.55094361966565, "alt_km": 35776.172733956766, "timestamp": "2025-12-05T19:30:25.235314+00:00", "meta": {"OBJECT_NAME": "GALAXY 30 (G-30)", "OBJECT_ID": "2020-056C", "EPOCH": "2025-12-04T23:24:17.216064", "MEAN_MOTION": 1.00269865, "ECCENTRICITY": 0.0002477, "INCLINATION": 0.0163, "RA_OF_ASC_NODE": 332.4397, "ARG_OF_PERICENTER": 277.9975, "MEAN_ANOMALY": 49.6774, "EPHEMERIS_TYPE": 0, "CLASSIFICATION_TYPE": "U", "NORAD_CAT_ID": 46114, "ELEMENT_SET_NO": 999, "REV_AT_EPOCH": 1934, "BSTAR": 0, "MEAN_MOTION_DOT": 5e-07, "MEAN_MOTION_DDOT": 0}, "tle": {"line1": "1 46114U 20056C   25338.97519926  .00000050  00000+0  00000+0 0  9991", "line2": "2 46114   0.0163 332.4397 0002477 277.9975  49.6774  1.00269865 19346"}}, "geometry": {"type": "Point", "coordinates": [-117.55094361966565, -0.04207811481181328]}}, {"type": "Feature", "properties": {"norad_id": 54026, "name": "GALAXY 33 (G-33)", "group": "intelsat", "lat": -0.02395230626703403, "lon": -125.5518059856675, "alt_km": 35777.44573254608, "timestamp": "2025-12-05T19:30:25.235326+00:00", "meta": {"OBJECT_NAME": "GALAXY 33 (G-33)", "OBJECT_ID": "2022-128A", "EPOCH": "2025-12-05T02:47:29.007744", "MEAN_MOTION": 1.00269533, "ECCENTRICITY": 0.0002243, "INCLINATION": 0.0117, "RA_OF_ASC_NODE": 23.0859, "ARG_OF_PERICENTER": 225.7168, "MEAN_ANOMALY": 94.2515, "EPHEMERIS_TYPE": 0, "CLASSIFICATION_TYPE": "U", "NORAD_CAT_ID": 54026, "ELEMENT_SET_NO": 999, "REV_AT_EPOCH": 1179, "BSTAR": 0, "MEAN_MOTION_DOT": 9.1e-07, "MEAN_MOTION_DDOT": 0}, "tle": {"line1": "1 54026U 22128A   25339.11630796  .00000091  00000+0  00000+0 0  9995", "line2": "2 54026   0.0117  23.0859 0002243 225.7168  94.2515  1.00269533 11790"}}, "geometry": {"type": "Point", "coordinates": [-125.5518059856675, -0.02395230626703403]}}, {"type": "Feature", "properties": {"norad_id": 54027, "name": "GALAXY 34 (G-34)", "group": "intelsat", "lat": -0.047556143771628805, "lon": -121.49198995158224, "alt_km": 35780.92594140136, "timestamp": "2025-12-05T19:30:25.235338+00:00", "meta": {"OBJECT_NAME": "GALAXY 34 (G-34)", "OBJECT_ID": "2022-128B", "EPOCH": "2025-12-05T02:48:36.399744", "MEAN_MOTION": 1.00269413, "ECCENTRICITY": 0.00013695, "INCLINATION": 0.0217, "RA_OF_ASC_NODE": 332.4929, "ARG_OF_PERICENTER": 271.6425, "MEAN_ANOMALY": 103.2558, "EPHEMERIS_TYPE": 0, "CLASSIFICATION_TYPE": "U", "NORAD_CAT_ID": 54027, "ELEMENT_SET_NO": 999, "REV_AT_EPOCH": 1196, "BSTAR": 0, "MEAN_MOTION_DOT": 0, "MEAN_MOTION_DDOT": 0}, "tle": {"line1": "1 54027U 22128B   25339.11708796  .00000000  00000+0  00000+0 0  9992", "line2": "2 54027   0.0217 332.4929 0001369 271.6425 103.2558  1.00269413 11965"}}, "geometry": {"type": "Point", "coordinates": [-121.49198995158224, -0.047556143771628805]}}, {"type": "Feature", "properties": {"norad_id": 54243, "name": "GALAXY 31 (G-31)", "group": "intelsat", "lat": -0.017410395310005693, "lon": -113.55349315324945, "alt_km": 35778.4957411463, "timestamp": "2025-12-05T19:30:25.235349+00:00", "meta": {"OBJECT_NAME": "GALAXY 31 (G-31)", "OBJECT_ID": "2022-153A", "EPOCH": "2025-12-04T23:25:17.120640", "MEAN_MOTION": 1.0027049, "ECCENTRICITY": 0.00019867, "INCLINATION": 0.0144, "RA_OF_ASC_NODE": 52.8904, "ARG_OF_PERICENTER": 213.6751, "MEAN_ANOMALY": 37.7987, "EPHEMERIS_TYPE": 0, "CLASSIFICATION_TYPE": "U", "NORAD_CAT_ID": 54243, "ELEMENT_SET_NO": 999, "REV_AT_EPOCH": 518, "BSTAR": 0, "MEAN_MOTION_DOT": 2.6e-07, "MEAN_MOTION_DDOT": 0}, "tle": {"line1": "1 54243U 22153A   25338.97589260  .00000026  00000+0  00000+0 0  9994", "line2": "2 54243   0.0144  52.8904 0001986 213.6751  37.7987  1.00270490  5184"}}, "geometry": {"type": "Point", "coordinates": [-113.55349315324945, -0.017410395310005693]}}, {"type": "Feature", "properties": {"norad_id": 54244, "name": "GALAXY 32 (G-32)", "group": "intelsat", "lat": -0.03149659173892174, "lon": -83.52830289413565, "alt_km": 35774.11724596683, "timestamp": "2025-12-05T19:30:25.235361+00:00", "meta": {"OBJECT_NAME": "GALAXY 32 (G-32)", "OBJECT_ID": "2022-153B", "EPOCH": "2025-12-04T13:17:37.099104", "MEAN_MOTION": 1.00275803, "ECCENTRICITY": 0.00027886, "INCLINATION": 0.0107, "RA_OF_ASC_NODE": 343.0801, "ARG_OF_PERICENTER": 315.5746, "MEAN_ANOMALY": 243.3847, "EPHEMERIS_TYPE": 0, "CLASSIFICATION_TYPE": "U", "NORAD_CAT_ID": 54244, "ELEMENT_SET_NO": 999, "REV_AT_EPOCH": 1119, "BSTAR": 0, "MEAN_MOTION_DOT": -1.6e-06, "MEAN_MOTION_DDOT": 0}, "tle": {"line1": "1 54244U 22153B   25338.55390161 -.00000160  00000+0  00000+0 0  9999", "line2": "2 54244   0.0107 343.0801 0002788 315.5746 243.3847  1.00275803 11193"}}, "geometry": {"type": "Point", "coordinates": [-83.52830289413565, -0.03149659173892174]}}, {"type": "Feature", "properties": {"norad_id": 54741, "name": "GALAXY 35 (G-35)", "group": "intelsat", "lat": -0.03446748596435214, "lon": -85.64886805765646, "alt_km": 35775.03569119189, "timestamp": "2025-12-05T19:30:25.235372+00:00", "meta": {"OBJECT_NAME": "GALAXY 35 (G-35)", "OBJECT_ID": "2022-170A", "EPOCH": "2025-12-05T04:26:26.705184", "MEAN_MOTION": 1.00270387, "ECCENTRICITY": 0.00027636, "INCLINATION": 0.0148, "RA_OF_ASC_NODE": 12.6393, "ARG_OF_PERICENTER": 250.2236, "MEAN_ANOMALY": 144.8875, "EPHEMERIS_TYPE": 0, "CLASSIFICATION_TYPE": "U", "NORAD_CAT_ID": 54741, "ELEMENT_SET_NO": 999, "REV_AT_EPOCH": 1094, "BSTAR": 0, "MEAN_MOTION_DOT": 0, "MEAN_MOTION_DDOT": 0}, "tle": {"line1": "1 54741U 22170A   25339.18503131  .00000000  00000+0  00000+0 0  9995", "line2": "2 54741   0.0148  12.6393 0002763 250.2236 144.8875  1.00270387 10947"}}, "geometry": {"type": "Point", "coordinates": [-85.64886805765646, -0.03446748596435214]}}, {"type": "Feature", "properties": {"norad_id": 54742, "name": "GALAXY 36 (G-36)", "group": "intelsat", "lat": -0.013790450110782667, "lon": -81.5420985793944, "alt_km": 35783.88361664733, "timestamp": "2025-12-05T19:30:25.235384+00:00", "meta": {"OBJECT_NAME": "GALAXY 36 (G-36)", "OBJECT_ID": "2022-170B", "EPOCH": "2025-12-05T03:45:38.745216", "MEAN_MOTION": 1.00270998, "ECCENTRICITY": 6.265e-05, "INCLINATION": 0.0154, "RA_OF_ASC_NODE": 282.4728, "ARG_OF_PERICENTER": 333.9341, "MEAN_ANOMALY": 145.225, "EPHEMERIS_TYPE": 0, "CLASSIFICATION_TYPE": "U", "NORAD_CAT_ID": 54742, "ELEMENT_SET_NO": 999, "REV_AT_EPOCH": 1082, "BSTAR": 0, "MEAN_MOTION_DOT": -1.73e-06, "MEAN_MOTION_DDOT": 0}, "tle": {"line1": "1 54742U 22170B   25339.15669844 -.00000173  00000+0  00000+0 0  9999", "line2": "2 54742   0.0154 282.4728 0000626 333.9341 145.2250  1.00270998 10823"}}, "geometry": {"type": "Point", "coordinates": [-81.5420985793944, -0.013790450110782667]}}, {"type": "Feature", "properties": {"norad_id": 57493, "name": "GALAXY 37 (G-37)", "group": "intelsat", "lat": -0.03468045188832265, "lon": -119.54968020198964, "alt_km": 35776.813151212125, "timestamp": "2025-12-05T19:30:25.235396+00:00", "meta": {"OBJECT_NAME": "GALAXY 37 (G-37)", "OBJECT_ID": "2023-112A", "EPOCH": "2025-12-05T02:49:13.840320", "MEAN_MOTION": 1.00269912, "ECCENTRICITY": 0.00024009, "INCLINATION": 0.0107, "RA_OF_ASC_NODE": 314.1921, "ARG_OF_PERICENTER": 302.9074, "MEAN_ANOMALY": 92.3955, "EPHEMERIS_TYPE": 0, "CLASSIFICATION_TYPE": "U", "NORAD_CAT_ID": 57493, "ELEMENT_SET_NO": 999, "REV_AT_EPOCH": 859, "BSTAR": 0, "MEAN_MOTION_DOT": 6.1e-07, "MEAN_MOTION_DDOT": 0}, "tle": {"line1": "1 57493U 23112A   25339.11752130  .00000061  00000+0  00000+0 0  9994", "line2": "2 57493   0.0107 314.1921 0002400 302.9074  92.3955  1.00269912  8595"}}, "geometry": {"type": "Point", "coordinates": [-119.54968020198964, -0.03468045188832265]}}]}